ONEWEB-0120             
1 47266U 20100J   25314.65704863  .00000077  00000+0  17793-3 0  9995
2 47266  87.8964  34.0982 0001776  97.1565 262.9766 13.12445251236062
ONEWEB-0121             
1 47267U 20100K   25314.49307961 -.00000254  00000+0 -74122-3 0  9994
2 47267  87.8971  34.0971 0001882 105.2006 254.9331 13.12443381235956
ONEWEB-0122             
1 47268U 20100L   25314.64055004 -.00000386  00000+0 -11088-2 0  9997
2 47268  87.8972  34.0703 0001928  99.9519 260.1827 13.12442781235884
ONEWEB-0123             
1 47269U 20100M   25314.63581012 -.00000390  00000+0 -11187-2 0  9995
2 47269  87.8971  34.0986 0001633 100.7242 259.4070 13.12441121236029
ONEWEB-0124             
1 47270U 20100N   25314.47198416 -.00000130  00000+0 -39587-3 0  9998
2 47270  87.8976  34.1354 0001720 107.3484 252.7833 13.12441116235884
ONEWEB-0125             
1 47271U 20100P   25314.67799903  .00000454  00000+0  12269-2 0  9993
2 47271  87.8974  34.0563 0001499 105.8035 254.3259 13.12443624235978
ONEWEB-0126             
1 47272U 20100Q   25314.47050511 -.00000125  00000+0 -38357-3 0  9991
2 47272  87.8974  34.1211 0001777  97.7468 262.3862 13.12441166236012
ONEWEB-0127             
1 47273U 20100R   25314.66502318  .00000294  00000+0  78268-3 0  9990
2 47273  87.8967  34.0933 0001839  97.8298 262.3040 13.12444600236065
ONEWEB-0128             
1 47274U 20100S   25314.45902226  .00000287  00000+0  76361-3 0  9994
2 47274  87.8965  34.1537 0002010 103.1045 257.0308 13.12442426236059
ONEWEB-0129             
1 47275U 20100T   25314.66664442  .00000331  00000+0  88570-3 0  9998
2 47275  87.8971  34.0623 0002413  74.1973 285.9422 13.12444705236011
ONEWEB-0130             
1 47276U 20100U   25314.46550210  .00000032  00000+0  54963-4 0  9992
2 47276  87.8975  34.0981 0001885 100.9734 259.1607 13.12440480235954
ONEWEB-0131             
1 47277U 20100V   25314.46226151  .00000175  00000+0  45244-3 0  9996
2 47277  87.8974  34.1288 0001797 102.7283 257.4047 13.12441101235990
ONEWEB-0132             
1 47278U 20100W   25314.64393027 -.00000437  00000+0 -12499-2 0  9992
2 47278  87.8970  34.0938 0001964 100.7672 259.3678 13.12442552235918
ONEWEB-0133             
1 47279U 20100X   25314.50754545  .00000261  00000+0  69003-3 0  9991
2 47279  87.8965  34.0852 0001914 104.6137 255.5204 13.12444014236056
ONEWEB-0134             
1 47280U 20100Y   25314.62933635 -.00000290  00000+0 -84191-3 0  9994
2 47280  87.8972  34.0537 0002064 100.7687 259.3674 13.12441950236048
ONEWEB-0135             
1 47281U 20100Z   25314.67637747  .00000520  00000+0  14108-2 0  9999
2 47281  87.8972  34.0852 0002185 102.8388 257.2984 13.12442761236079
