[{"OBJECT_NAME":"ONEWEB-0120","OBJECT_ID":"2020-100J","EPOCH":"2025-11-10T15:46:09.001632","MEAN_MOTION":13.12445251,"ECCENTRICITY":0.0001776,"INCLINATION":87.8964,"RA_OF_ASC_NODE":34.0982,"ARG_OF_PERICENTER":97.1565,"MEAN_ANOMALY":262.9766,"EPHEMERIS_TYPE":0,"CLASSIFICATION_TYPE":"U","NORAD_CAT_ID":47266,"ELEMENT_SET_NO":999,"REV_AT_EPOCH":23606,"BSTAR":0.0001779286,"MEAN_MOTION_DOT":7.7e-7,"MEAN_MOTION_DDOT":0},{"OBJECT_NAME":"ONEWEB-0121","OBJECT_ID":"2020-100K","EPOCH":"2025-11-10T11:50:02.078304","MEAN_MOTION":13.12443381,"ECCENTRICITY":0.00018824,"INCLINATION":87.8971,"RA_OF_ASC_NODE":34.0971,"ARG_OF_PERICENTER":105.2006,"MEAN_ANOMALY":254.9331,"EPHEMERIS_TYPE":0,"CLASSIFICATION_TYPE":"U","NORAD_CAT_ID":47267,"ELEMENT_SET_NO":999,"REV_AT_EPOCH":23595,"BSTAR":-0.00074122412,"MEAN_MOTION_DOT":-2.54e-6,"MEAN_MOTION_DDOT":0},{"OBJECT_NAME":"ONEWEB-0122","OBJECT_ID":"2020-100L","EPOCH":"2025-11-10T15:22:23.523456","MEAN_MOTION":13.12442781,"ECCENTRICITY":0.00019288,"INCLINATION":87.8972,"RA_OF_ASC_NODE":34.0703,"ARG_OF_PERICENTER":99.9519,"MEAN_ANOMALY":260.1827,"EPHEMERIS_TYPE":0,"CLASSIFICATION_TYPE":"U","NORAD_CAT_ID":47268,"ELEMENT_SET_NO":999,"REV_AT_EPOCH":23588,"BSTAR":-0.0011087747,"MEAN_MOTION_DOT":-3.86e-6,"MEAN_MOTION_DDOT":0},{"OBJECT_NAME":"ONEWEB-0123","OBJECT_ID":"2020-100M","EPOCH":"2025-11-10T15:15:33.994368","MEAN_MOTION":13.12441121,"ECCENTRICITY":0.00016333,"INCLINATION":87.8971,"RA_OF_ASC_NODE":34.0986,"ARG_OF_PERICENTER":100.7242,"MEAN_ANOMALY":259.407,"EPHEMERIS_TYPE":0,"CLASSIFICATION_TYPE":"U","NORAD_CAT_ID":47269,"ELEMENT_SET_NO":999,"REV_AT_EPOCH":23602,"BSTAR":-0.0011187224,"MEAN_MOTION_DOT":-3.9e-6,"MEAN_MOTION_DDOT":0},{"OBJECT_NAME":"ONEWEB-0124","OBJECT_ID":"2020-100N","EPOCH":"2025-11-10T11:19:39.431424","MEAN_MOTION":13.12441116,"ECCENTRICITY":0.00017203,"INCLINATION":87.8976,"RA_OF_ASC_NODE":34.1354,"ARG_OF_PERICENTER":107.3484,"MEAN_ANOMALY":252.7833,"EPHEMERIS_TYPE":0,"CLASSIFICATION_TYPE":"U","NORAD_CAT_ID":47270,"ELEMENT_SET_NO":999,"REV_AT_EPOCH":23588,"BSTAR":-0.00039586785,"MEAN_MOTION_DOT":-1.3e-6,"MEAN_MOTION_DDOT":0},{"OBJECT_NAME":"ONEWEB-0125","OBJECT_ID":"2020-100P","EPOCH":"2025-11-10T16:16:19.116192","MEAN_MOTION":13.12443624,"ECCENTRICITY":0.00014995,"INCLINATION":87.8974,"RA_OF_ASC_NODE":34.0563,"ARG_OF_PERICENTER":105.8035,"MEAN_ANOMALY":254.3259,"EPHEMERIS_TYPE":0,"CLASSIFICATION_TYPE":"U","NORAD_CAT_ID":47271,"ELEMENT_SET_NO":999,"REV_AT_EPOCH":23597,"BSTAR":0.0012268882,"MEAN_MOTION_DOT":4.54e-6,"MEAN_MOTION_DDOT":0},{"OBJECT_NAME":"ONEWEB-0126","OBJECT_ID":"2020-100Q","EPOCH":"2025-11-10T11:17:31.641504","MEAN_MOTION":13.12441166,"ECCENTRICITY":0.00017776,"INCLINATION":87.8974,"RA_OF_ASC_NODE":34.1211,"ARG_OF_PERICENTER":97.7468,"MEAN_ANOMALY":262.3862,"EPHEMERIS_TYPE":0,"CLASSIFICATION_TYPE":"U","NORAD_CAT_ID":47272,"ELEMENT_SET_NO":999,"REV_AT_EPOCH":23601,"BSTAR":-0.00038357354,"MEAN_MOTION_DOT":-1.25e-6,"MEAN_MOTION_DDOT":0},{"OBJECT_NAME":"ONEWEB-0127","OBJECT_ID":"2020-100R","EPOCH":"2025-11-10T15:57:38.002752","MEAN_MOTION":13.124446,"ECCENTRICITY":0.00018391,"INCLINATION":87.8967,"RA_OF_ASC_NODE":34.0933,"ARG_OF_PERICENTER":97.8298,"MEAN_ANOMALY":262.304,"EPHEMERIS_TYPE":0,"CLASSIFICATION_TYPE":"U","NORAD_CAT_ID":47273,"ELEMENT_SET_NO":999,"REV_AT_EPOCH":23606,"BSTAR":0.00078267616,"MEAN_MOTION_DOT":2.94e-6,"MEAN_MOTION_DDOT":0},{"OBJECT_NAME":"ONEWEB-0128","OBJECT_ID":"2020-100S","EPOCH":"2025-11-10T11:00:59.523264","MEAN_MOTION":13.12442426,"ECCENTRICITY":0.00020103,"INCLINATION":87.8965,"RA_OF_ASC_NODE":34.1537,"ARG_OF_PERICENTER":103.1045,"MEAN_ANOMALY":257.0308,"EPHEMERIS_TYPE":0,"CLASSIFICATION_TYPE":"U","NORAD_CAT_ID":47274,"ELEMENT_SET_NO":999,"REV_AT_EPOCH":23605,"BSTAR":0.00076360837,"MEAN_MOTION_DOT":2.87e-6,"MEAN_MOTION_DDOT":0},{"OBJECT_NAME":"ONEWEB-0129","OBJECT_ID":"2020-100T","EPOCH":"2025-11-10T15:59:58.077888","MEAN_MOTION":13.12444705,"ECCENTRICITY":0.00024135,"INCLINATION":87.8971,"RA_OF_ASC_NODE":34.0623,"ARG_OF_PERICENTER":74.1973,"MEAN_ANOMALY":285.9422,"EPHEMERIS_TYPE":0,"CLASSIFICATION_TYPE":"U","NORAD_CAT_ID":47275,"ELEMENT_SET_NO":999,"REV_AT_EPOCH":23601,"BSTAR":0.0008857006,"MEAN_MOTION_DOT":3.31e-6,"MEAN_MOTION_DDOT":0},{"OBJECT_NAME":"ONEWEB-0130","OBJECT_ID":"2020-100U","EPOCH":"2025-11-10T11:10:19.381440","MEAN_MOTION":13.1244048,"ECCENTRICITY":0.00018853,"INCLINATION":87.8975,"RA_OF_ASC_NODE":34.0981,"ARG_OF_PERICENTER":100.9734,"MEAN_ANOMALY":259.1607,"EPHEMERIS_TYPE":0,"CLASSIFICATION_TYPE":"U","NORAD_CAT_ID":47276,"ELEMENT_SET_NO":999,"REV_AT_EPOCH":23595,"BSTAR":5.4963054e-5,"MEAN_MOTION_DOT":3.2e-7,"MEAN_MOTION_DDOT":0},{"OBJECT_NAME":"ONEWEB-0131","OBJECT_ID":"2020-100V","EPOCH":"2025-11-10T11:05:39.394464","MEAN_MOTION":13.12441101,"ECCENTRICITY":0.00017973,"INCLINATION":87.8974,"RA_OF_ASC_NODE":34.1288,"ARG_OF_PERICENTER":102.7283,"MEAN_ANOMALY":257.4047,"EPHEMERIS_TYPE":0,"CLASSIFICATION_TYPE":"U","NORAD_CAT_ID":47277,"ELEMENT_SET_NO":999,"REV_AT_EPOCH":23599,"BSTAR":0.00045244422,"MEAN_MOTION_DOT":1.75e-6,"MEAN_MOTION_DDOT":0},{"OBJECT_NAME":"ONEWEB-0132","OBJECT_ID":"2020-100W","EPOCH":"2025-11-10T15:27:15.575328","MEAN_MOTION":13.12442552,"ECCENTRICITY":0.00019649,"INCLINATION":87.897,"RA_OF_ASC_NODE":34.0938,"ARG_OF_PERICENTER":100.7672,"MEAN_ANOMALY":259.3678,"EPHEMERIS_TYPE":0,"CLASSIFICATION_TYPE":"U","NORAD_CAT_ID":47278,"ELEMENT_SET_NO":999,"REV_AT_EPOCH":23591,"BSTAR":-0.0012499472,"MEAN_MOTION_DOT":-4.37e-6,"MEAN_MOTION_DDOT":0},{"OBJECT_NAME":"ONEWEB-0133","OBJECT_ID":"2020-100X","EPOCH":"2025-11-10T12:10:51.926880","MEAN_MOTION":13.12444014,"ECCENTRICITY":0.00019146,"INCLINATION":87.8965,"RA_OF_ASC_NODE":34.0852,"ARG_OF_PERICENTER":104.6137,"MEAN_ANOMALY":255.5204,"EPHEMERIS_TYPE":0,"CLASSIFICATION_TYPE":"U","NORAD_CAT_ID":47279,"ELEMENT_SET_NO":999,"REV_AT_EPOCH":23605,"BSTAR":0.00069003436,"MEAN_MOTION_DOT":2.61e-6,"MEAN_MOTION_DDOT":0},{"OBJECT_NAME":"ONEWEB-0134","OBJECT_ID":"2020-100Y","EPOCH":"2025-11-10T15:06:14.660640","MEAN_MOTION":13.1244195,"ECCENTRICITY":0.00020642,"INCLINATION":87.8972,"RA_OF_ASC_NODE":34.0537,"ARG_OF_PERICENTER":100.7687,"MEAN_ANOMALY":259.3674,"EPHEMERIS_TYPE":0,"CLASSIFICATION_TYPE":"U","NORAD_CAT_ID":47280,"ELEMENT_SET_NO":999,"REV_AT_EPOCH":23604,"BSTAR":-0.00084190845,"MEAN_MOTION_DOT":-2.9e-6,"MEAN_MOTION_DDOT":0},{"OBJECT_NAME":"ONEWEB-0135","OBJECT_ID":"2020-100Z","EPOCH":"2025-11-10T16:13:59.013408","MEAN_MOTION":13.12442761,"ECCENTRICITY":0.00021851,"INCLINATION":87.8972,"RA_OF_ASC_NODE":34.0852,"ARG_OF_PERICENTER":102.8388,"MEAN_ANOMALY":257.2984,"EPHEMERIS_TYPE":0,"CLASSIFICATION_TYPE":"U","NORAD_CAT_ID":47281,"ELEMENT_SET_NO":999,"REV_AT_EPOCH":23607,"BSTAR":0.0014107832,"MEAN_MOTION_DOT":5.2e-6,"MEAN_MOTION_DDOT":0}]
